$$SOE
2460154.500000000, A.D. 2023-Jul-29 00:00:00.0000, 3.542212775308588E+08, 2.012987777128587E+08, 4.358766534580985E+07,
2460161.500000000, A.D. 2023-Aug-05 00:00:00.0000, 3.494502796627719E+08, 2.105347182019095E+08, 4.188476472566770E+07,
2460168.500000000, A.D. 2023-Aug-12 00:00:00.0000, 3.444336184461410E+08, 2.196226875969897E+08, 4.015232204340512E+07,
2460175.500000000, A.D. 2023-Aug-19 00:00:00.0000, 3.391754425108947E+08, 2.285566805346773E+08, 3.839163019934736E+07,
2460182.500000000, A.D. 2023-Aug-26 00:00:00.0000, 3.336800173726766E+08, 2.373308083247927E+08, 3.660399195994309E+07,
2460189.500000000, A.D. 2023-Sep-02 00:00:00.0000, 3.279517227642757E+08, 2.459392996155041E+08, 3.479071942715107E+07,
2460196.500000000, A.D. 2023-Sep-09 00:00:00.0000, 3.219950500769142E+08, 2.543765009270106E+08, 3.295313351358056E+07,
2460203.500000000, A.D. 2023-Sep-16 00:00:00.0000, 3.158146000789834E+08, 2.626368770025743E+08, 3.109256340268655E+07,
2460210.500000000, A.D. 2023-Sep-23 00:00:00.0000, 3.094150813286935E+08, 2.707150112694002E+08, 2.921034597860126E+07,
2460217.500000000, A.D. 2023-Sep-30 00:00:00.0000, 3.028013089396643E+08, 2.786056076022566E+08, 2.730782535265699E+07,
2460224.500000000, A.D. 2023-Oct-07 00:00:00.0000, 2.959782013391292E+08, 2.863034928482830E+08, 2.538635265658249E+07,
2460231.500000000, A.D. 2023-Oct-14 00:00:00.0000, 2.889507760537562E+08, 2.938036168060655E+08, 2.344728573586589E+07,
2460238.500000000, A.D. 2023-Oct-21 00:00:00.0000, 2.817241477496455E+08, 3.011010512664398E+08, 2.149198857749461E+07,
2460245.500000000, A.D. 2023-Oct-28 00:00:00.0000, 2.743035270962808E+08, 3.081909903785168E+08, 1.952183078671391E+07,
2460252.500000000, A.D. 2023-Nov-04 00:00:00.0000, 2.666942191996050E+08, 3.150687515768465E+08, 1.753818716464968E+07,
2460259.500000000, A.D. 2023-Nov-11 00:00:00.0000, 2.589016217799935E+08, 3.217297764760899E+08, 1.554243732166633E+07,
2460266.500000000, A.D. 2023-Nov-18 00:00:00.0000, 2.509312233130090E+08, 3.281696316729631E+08, 1.353596530070768E+07,
2460273.500000000, A.D. 2023-Nov-25 00:00:00.0000, 2.427886012023996E+08, 3.343840094805856E+08, 1.152015920499612E+07,
2460280.500000000, A.D. 2023-Dec-02 00:00:00.0000, 2.344794200083782E+08, 3.403687285866324E+08, 9.496410825693265E+06,
2460287.500000000, A.D. 2023-Dec-09 00:00:00.0000, 2.260094298031418E+08, 3.461197345800666E+08, 7.466115256755412E+06,
2460294.500000000, A.D. 2023-Dec-16 00:00:00.0000, 2.173844649358815E+08, 3.516331003641255E+08, 5.430670470880181E+06,
2460301.500000000, A.D. 2023-Dec-23 00:00:00.0000, 2.086104435522763E+08, 3.569050271486480E+08, 3.391476879781678E+06,
2460308.500000000, A.D. 2023-Dec-30 00:00:00.0000, 1.996933665253094E+08, 3.619318470734056E+08, 1.349937086048007E+06,
2460315.500000000, A.D. 2024-Jan-06 00:00:00.0000, 1.906393140177940E+08, 3.667100251022525E+08, -6.925442048726231E+05,
2460322.500000000, A.D. 2024-Jan-13 00:00:00.0000, 1.814544428436965E+08, 3.712361583879868E+08, -2.734560552133977E+06,
2460329.500000000, A.D. 2024-Jan-20 00:00:00.0000, 1.721449858505163E+08, 3.755069761974080E+08, -4.774704288347110E+06,
2460336.500000000, A.D. 2024-Jan-27 00:00:00.0000, 1.627172512892875E+08, 3.795193410489857E+08, -6.811566932213083E+06,
2460343.500000000, A.D. 2024-Feb-03 00:00:00.0000, 1.531776217373702E+08, 3.832702501159045E+08, -8.843739544580117E+06,
2460350.500000000, A.D. 2024-Feb-10 00:00:00.0000, 1.435325528454439E+08, 3.867568366057886E+08, -1.086981307855622E+07,
2460357.500000000, A.D. 2024-Feb-17 00:00:00.0000, 1.337885720416851E+08, 3.899763711274088E+08, -1.288837873715802E+07,
2460364.500000000, A.D. 2024-Feb-24 00:00:00.0000, 1.239522772232887E+08, 3.929262630613216E+08, -1.489802834197721E+07,
2460371.500000000, A.D. 2024-Mar-02 00:00:00.0000, 1.140303354587528E+08, 3.956040619038556E+08, -1.689735471955766E+07,
2460378.500000000, A.D. 2024-Mar-09 00:00:00.0000, 1.040294818335609E+08, 3.980074585234435E+08, -1.888495212466052E+07,
2460385.500000000, A.D. 2024-Mar-16 00:00:00.0000, 9.395651882823162E+07, 4.001342865288920E+08, -2.085941672188888E+07,
2460392.500000000, A.D. 2024-Mar-23 00:00:00.0000, 8.381831611973533E+07, 4.019825248616303E+08, -2.281934702715938E+07,
2460399.500000000, A.D. 2024-Mar-30 00:00:00.0000, 7.362180856077862E+07, 4.035503015848788E+08, -2.476334410718395E+07,
2460406.500000000, A.D. 2024-Apr-06 00:00:00.0000, 6.337399258443581E+07, 4.048358954987764E+08, -2.669001183615401E+07,
2460413.500000000, A.D. 2024-Apr-13 00:00:00.0000, 5.308192457599758E+07, 4.058377364217335E+08, -2.859795746813962E+07,
2460420.500000000, A.D. 2024-Apr-20 00:00:00.0000, 4.275272025536299E+07, 4.065544068181973E+08, -3.048579222113883E+07,
2460427.500000000, A.D. 2024-Apr-27 00:00:00.0000, 3.239355354697348E+07, 4.069846442100458E+08, -3.235213178078547E+07,
2460434.500000000, A.D. 2024-May-04 00:00:00.0000, 2.201165501738673E+07, 4.071273436672333E+08, -3.419559679029056E+07,
2460441.500000000, A.D. 2024-May-11 00:00:00.0000, 1.161431011098193E+07, 4.069815602758825E+08, -3.601481335797550E+07,
2460448.500000000, A.D. 2024-May-18 00:00:00.0000, 1.208857258026560E+06, 4.065465116055782E+08, -3.780841358941650E+07,
2460455.500000000, A.D. 2024-May-25 00:00:00.0000, -9.197314127872521E+06, 4.058215801687565E+08, -3.957503614838688E+07,
2460462.500000000, A.D. 2024-Jun-01 00:00:00.0000, -1.959676571055437E+07, 4.048063158144154E+08, -4.131332685816462E+07,
2460469.500000000, A.D. 2024-Jun-08 00:00:00.0000, -2.998201211106677E+07, 4.035004380320708E+08, -4.302193936901836E+07,
2460476.500000000, A.D. 2024-Jun-15 00:00:00.0000, -4.034552221379510E+07, 4.019038387089575E+08, -4.469953588518004E+07,
2460483.500000000, A.D. 2024-Jun-22 00:00:00.0000, -5.067972091050946E+07, 4.000165865127114E+08, -4.634478776419206E+07,
2460490.500000000, A.D. 2024-Jun-29 00:00:00.0000, -6.097699340931730E+07, 3.978389310712614E+08, -4.795637594280615E+07,
2460497.500000000, A.D. 2024-Jul-06 00:00:00.0000, -7.122968947441721E+07, 3.953713044672865E+08, -4.953299163225847E+07,
2460504.500000000, A.D. 2024-Jul-13 00:00:00.0000, -8.143012566288541E+07, 3.926143228688517E+08, -5.107333723152161E+07,
2460511.500000000, A.D. 2024-Jul-20 00:00:00.0000, -9.157058755452688E+07, 3.895687894465140E+08, -5.257612718512323E+07,
2460518.500000000, A.D. 2024-Jul-27 00:00:00.0000, -1.016433326386004E+08, 3.862356976151482E+08, -5.404008880581823E+07,
2460525.500000000, A.D. 2024-Aug-03 00:00:00.0000, -1.116405935921797E+08, 3.826162342212608E+08, -5.546396311952844E+07,
2460532.500000000, A.D. 2024-Aug-10 00:00:00.0000, -1.215545817919474E+08, 3.787117826655281E+08, -5.684650574959087E+07,
2460539.500000000, A.D. 2024-Aug-17 00:00:00.0000, -1.313774910199818E+08, 3.745239259749457E+08, -5.818648784398952E+07,
2460546.500000000, A.D. 2024-Aug-24 00:00:00.0000, -1.411015013440879E+08, 3.700544497939390E+08, -5.948269705081210E+07,
2460553.500000000, A.D. 2024-Aug-31 00:00:00.0000, -1.507187830657839E+08, 3.653053452237895E+08, -6.073393855828577E+07,
2460560.500000000, A.D. 2024-Sep-07 00:00:00.0000, -1.602215003794876E+08, 3.602788116269003E+08, -6.193903622322276E+07,
2460567.500000000, A.D. 2024-Sep-14 00:00:00.0000, -1.696018146673926E+08, 3.549772603818524E+08, -6.309683371513958E+07,
2460574.500000000, A.D. 2024-Sep-21 00:00:00.0000, -1.788518894683445E+08, 3.494033199932264E+08, -6.420619545780098E+07,
2460581.500000000, A.D. 2024-Sep-28 00:00:00.0000, -1.879638976137917E+08, 3.435598393176040E+08, -6.526600758781660E+07,
2460588.500000000, A.D. 2024-Oct-05 00:00:00.0000, -1.969300268677008E+08, 3.374498888902966E+08, -6.627517926511554E+07,
2460595.500000000, A.D. 2024-Oct-12 00:00:00.0000, -2.057424844425299E+08, 3.310767633195218E+08, -6.723264405914937E+07,
2460602.500000000, A.D. 2024-Oct-19 00:00:00.0000, -2.143935021501935E+08, 3.244439844663984E+08, -6.813736127371781E+07,
2460609.500000000, A.D. 2024-Oct-26 00:00:00.0000, -2.228753422257932E+08, 3.175553045946758E+08, -6.898831727268705E+07,
2460616.500000000, A.D. 2024-Nov-02 00:00:00.0000, -2.311803035725383E+08, 3.104147093251908E+08, -6.978452684155104E+07,
2460623.500000000, A.D. 2024-Nov-09 00:00:00.0000, -2.393007283369188E+08, 3.030264203986633E+08, -7.052503459123620E+07,
2460630.500000000, A.D. 2024-Nov-16 00:00:00.0000, -2.472290087932065E+08, 2.953948982293693E+08, -7.120891640562040E+07,
2460637.500000000, A.D. 2024-Nov-23 00:00:00.0000, -2.549575944944668E+08, 2.875248441811775E+08, -7.183528094002721E+07,
2460644.500000000, A.D. 2024-Nov-30 00:00:00.0000, -2.624789994849367E+08, 2.794212025035942E+08, -7.240327119183329E+07,
2460651.500000000, A.D. 2024-Dec-07 00:00:00.0000, -2.697858091566392E+08, 2.710891623274584E+08, -7.291206614547749E+07,
2460658.500000000, A.D. 2024-Dec-14 00:00:00.0000, -2.768706874412476E+08, 2.625341609224518E+08, -7.336088232694948E+07,
2460665.500000000, A.D. 2024-Dec-21 00:00:00.0000, -2.837263866580023E+08, 2.537618869551626E+08, -7.374897515557767E+07,
2460672.500000000, A.D. 2024-Dec-28 00:00:00.0000, -2.903457580422146E+08, 2.447782807592653E+08, -7.407564051421125E+07,
2460679.500000000, A.D. 2025-Jan-04 00:00:00.0000, -2.967217603515204E+08, 2.355895339665828E+08, -7.434021657677352E+07,
2460686.500000000, A.D. 2025-Jan-11 00:00:00.0000, -3.028474683702610E+08, 2.262020901319372E+08, -7.454208558753543E+07,
2460693.500000000, A.D. 2025-Jan-18 00:00:00.0000, -3.087160822261654E+08, 2.166226454100124E+08, -7.468067558137675E+07,
2460700.500000000, A.D. 2025-Jan-25 00:00:00.0000, -3.143209372684667E+08, 2.068581487853363E+08, -7.475546210281996E+07,
2460707.500000000, A.D. 2025-Feb-01 00:00:00.0000, -3.196555143086439E+08, 1.969158017991959E+08, -7.476596993950111E+07,
2460714.500000000, A.D. 2025-Feb-08 00:00:00.0000, -3.247134501545131E+08, 1.868030577669052E+08, -7.471177486943825E+07,
2460721.500000000, A.D. 2025-Feb-15 00:00:00.0000, -3.294885483956655E+08, 1.765276204394235E+08, -7.459250542160444E+07,
$$EOE